{"type": "FeatureCollection", "features": [ {"type": "Feature", "properties": {"norad_id": 66857, "name": "STARLINK-36083", "group": "last-30-days", "lat": -42.4424198519588, "lon": -16.014585014408176, "alt_km": 347.9170412513304, "timestamp": "2025-12-18T19:29:51.287607+00:00", "meta": {"OBJECT_NAME": "STARLINK-36083", "OBJECT_ID": "2025-281K", "EPOCH": "2025-12-18T06:00:02.999808", "MEAN_MOTION": 15.75651346, "ECCENTRICITY": 0.00014316, "INCLINATION": 43.0006, "RA_OF_ASC_NODE": 88.4785, "ARG_OF_PERICENTER": 263.6665, "MEAN_ANOMALY": 45.3672, "EPHEMERIS_TYPE": 0, "CLASSIFICATION_TYPE": "U", "NORAD_CAT_ID": 66857, "ELEMENT_SET_NO": 999, "REV_AT_EPOCH": 228, "BSTAR": -0.0058019734, "MEAN_MOTION_DOT": -0.00830825, "MEAN_MOTION_DDOT": 0}, "tle": {"line1": "1 66857U 25281K   25352.25003472 -.00830825  00000+0 -58020-2 0  9994", "line2": "2 66857  43.0006  88.4785 0001431 263.6665  45.3672 15.75651346  2282"}}, "geometry": {"type": "Point", "coordinates": [-16.014585014408176, -42.4424198519588]}}, {"type": "Feature", "properties": {"norad_id": 66858, "name": "STARLINK-35118", "group": "last-30-days", "lat": -42.66582990260371, "lon": -13.420807371003056, "alt_km": 347.7712702302997, "timestamp": "2025-12-18T19:29:51.287617+00:00", "meta": {"OBJECT_NAME": "STARLINK-35118", "OBJECT_ID": "2025-281L", "EPOCH": "2025-12-18T06:00:02.999808", "MEAN_MOTION": 15.7549725, "ECCENTRICITY": 0.00014287, "INCLINATION": 43.0008, "RA_OF_ASC_NODE": 88.4733, "ARG_OF_PERICENTER": 261.949, "MEAN_ANOMALY": 49.1054, "EPHEMERIS_TYPE": 0, "CLASSIFICATION_TYPE": "U", "NORAD_CAT_ID": 66858, "ELEMENT_SET_NO": 999, "REV_AT_EPOCH": 207, "BSTAR": -0.0045704813, "MEAN_MOTION_DOT": -0.00663197, "MEAN_MOTION_DDOT": 0}, "tle": {"line1": "1 66858U 25281L   25352.25003472 -.00663197  00000+0 -45705-2 0  9997", "line2": "2 66858  43.0008  88.4733 0001428 261.9490  49.1054 15.75497250  2076"}}, "geometry": {"type": "Point", "coordinates": [-13.420807371003056, -42.66582990260371]}}, {"type": "Feature", "properties": {"norad_id": 66859, "name": "STARLINK-35646", "group": "last-30-days", "lat": -42.83030272013386, "lon": -10.801202236807903, "alt_km": 347.6355329326261, "timestamp": "2025-12-18T19:29:51.287627+00:00", "meta": {"OBJECT_NAME": "STARLINK-35646", "OBJECT_ID": "2025-281M", "EPOCH": "2025-12-18T06:00:02.999808", "MEAN_MOTION": 15.75329179, "ECCENTRICITY": 0.00013359, "INCLINATION": 43.0007, "RA_OF_ASC_NODE": 88.4682, "ARG_OF_PERICENTER": 270.5899, "MEAN_ANOMALY": 42.486, "EPHEMERIS_TYPE": 0, "CLASSIFICATION_TYPE": "U", "NORAD_CAT_ID": 66859, "ELEMENT_SET_NO": 999, "REV_AT_EPOCH": 228, "BSTAR": -0.0031156387, "MEAN_MOTION_DOT": -0.00459713, "MEAN_MOTION_DDOT": 0}, "tle": {"line1": "1 66859U 25281M   25352.25003472 -.00459713  00000+0 -31156-2 0  9990", "line2": "2 66859  43.0007  88.4682 0001335 270.5899  42.4860 15.75329179  2283"}}, "geometry": {"type": "Point", "coordinates": [-10.801202236807903, -42.83030272013386]}}, {"type": "Feature", "properties": {"norad_id": 66860, "name": "STARLINK-35987", "group": "last-30-days", "lat": -42.74719451085392, "lon": 2.3297016425154045, "alt_km": 347.0946766441839, "timestamp": "2025-12-18T19:29:51.287643+00:00", "meta": {"OBJECT_NAME": "STARLINK-35987", "OBJECT_ID": "2025-281N", "EPOCH": "2025-12-18T06:00:02.999808", "MEAN_MOTION": 15.75053012, "ECCENTRICITY": 0.00013097, "INCLINATION": 43.0005, "RA_OF_ASC_NODE": 88.4434, "ARG_OF_PERICENTER": 262.1229, "MEAN_ANOMALY": 60.6728, "EPHEMERIS_TYPE": 0, "CLASSIFICATION_TYPE": "U", "NORAD_CAT_ID": 66860, "ELEMENT_SET_NO": 999, "REV_AT_EPOCH": 228, "BSTAR": -0.00029779935, "MEAN_MOTION_DOT": -0.00046, "MEAN_MOTION_DDOT": 0}, "tle": {"line1": "1 66860U 25281N   25352.25003472 -.00046000  00000+0 -29780-3 0  9994", "line2": "2 66860  43.0005  88.4434 0001309 262.1229  60.6728 15.75053012  2288"}}, "geometry": {"type": "Point", "coordinates": [2.3297016425154045, -42.74719451085392]}}, {"type": "Feature", "properties": {"norad_id": 66861, "name": "STARLINK-35991", "group": "last-30-days", "lat": -42.97883704311567, "lon": -5.454364619035528, "alt_km": 346.8021829510217, "timestamp": "2025-12-18T19:29:51.287653+00:00", "meta": {"OBJECT_NAME": "STARLINK-35991", "OBJECT_ID": "2025-281P", "EPOCH": "2025-12-18T06:00:02.999808", "MEAN_MOTION": 15.75072264, "ECCENTRICITY": 0.00017347, "INCLINATION": 43.0008, "RA_OF_ASC_NODE": 88.4584, "ARG_OF_PERICENTER": 255.7089, "MEAN_ANOMALY": 61.3304, "EPHEMERIS_TYPE": 0, "CLASSIFICATION_TYPE": "U", "NORAD_CAT_ID": 66861, "ELEMENT_SET_NO": 999, "REV_AT_EPOCH": 228, "BSTAR": -0.00036694544, "MEAN_MOTION_DOT": -0.0005655, "MEAN_MOTION_DDOT": 0}, "tle": {"line1": "1 66861U 25281P   25352.25003472 -.00056550  00000+0 -36695-3 0  9999", "line2": "2 66861  43.0008  88.4584 0001734 255.7089  61.3304 15.75072264  2280"}}, "geometry": {"type": "Point", "coordinates": [-5.454364619035528, -42.97883704311567]}}, {"type": "Feature", "properties": {"norad_id": 66862, "name": "STARLINK-35974", "group": "last-30-days", "lat": -42.93761848814464, "lon": -8.069833101424916, "alt_km": 346.65391948900196, "timestamp": "2025-12-18T19:29:51.287685+00:00", "meta": {"OBJECT_NAME": "STARLINK-35974", "OBJECT_ID": "2025-281Q", "EPOCH": "2025-12-18T06:00:02.999808", "MEAN_MOTION": 15.7512144, "ECCENTRICITY": 0.0001965, "INCLINATION": 43.0009, "RA_OF_ASC_NODE": 88.4636, "ARG_OF_PERICENTER": 264.8145, "MEAN_ANOMALY": 50.2692, "EPHEMERIS_TYPE": 0, "CLASSIFICATION_TYPE": "U", "NORAD_CAT_ID": 66862, "ELEMENT_SET_NO": 999, "REV_AT_EPOCH": 218, "BSTAR": -0.00071787409, "MEAN_MOTION_DOT": -0.00109729, "MEAN_MOTION_DDOT": 0}, "tle": {"line1": "1 66862U 25281Q   25352.25003472 -.00109729  00000+0 -71787-3 0  9998", "line2": "2 66862  43.0009  88.4636 0001965 264.8145  50.2692 15.75121440  2187"}}, "geometry": {"type": "Point", "coordinates": [-8.069833101424916, -42.93761848814464]}}, {"type": "Feature", "properties": {"norad_id": 66863, "name": "STARLINK-36134", "group": "last-30-days", "lat": -42.96035132448387, "lon": -2.8493469015958772, "alt_km": 346.98776690504656, "timestamp": "2025-12-18T19:29:51.287695+00:00", "meta": {"OBJECT_NAME": "STARLINK-36134", "OBJECT_ID": "2025-281R", "EPOCH": "2025-12-18T06:00:02.999808", "MEAN_MOTION": 15.75058183, "ECCENTRICITY": 0.00014816, "INCLINATION": 43.0006, "RA_OF_ASC_NODE": 88.4536, "ARG_OF_PERICENTER": 256.4015, "MEAN_ANOMALY": 62.5699, "EPHEMERIS_TYPE": 0, "CLASSIFICATION_TYPE": "U", "NORAD_CAT_ID": 66863, "ELEMENT_SET_NO": 999, "REV_AT_EPOCH": 228, "BSTAR": -0.0003138069, "MEAN_MOTION_DOT": -0.00048445, "MEAN_MOTION_DDOT": 0}, "tle": {"line1": "1 66863U 25281R   25352.25003472 -.00048445  00000+0 -31381-3 0  9992", "line2": "2 66863  43.0006  88.4536 0001481 256.4015  62.5699 15.75058183  2287"}}, "geometry": {"type": "Point", "coordinates": [-2.8493469015958772, -42.96035132448387]}}, {"type": "Feature", "properties": {"norad_id": 66864, "name": "STARLINK-36070", "group": "last-30-days", "lat": -42.88299226655419, "lon": -0.24723971531038688, "alt_km": 346.96593336058413, "timestamp": "2025-12-18T19:29:51.287704+00:00", "meta": {"OBJECT_NAME": "STARLINK-36070", "OBJECT_ID": "2025-281S", "EPOCH": "2025-12-18T06:00:02.999808", "MEAN_MOTION": 15.75055765, "ECCENTRICITY": 0.00014673, "INCLINATION": 43.0008, "RA_OF_ASC_NODE": 88.4485, "ARG_OF_PERICENTER": 274.1986, "MEAN_ANOMALY": 46.6893, "EPHEMERIS_TYPE": 0, "CLASSIFICATION_TYPE": "U", "NORAD_CAT_ID": 66864, "ELEMENT_SET_NO": 999, "REV_AT_EPOCH": 231, "BSTAR": -0.00027389399, "MEAN_MOTION_DOT": -0.00042369, "MEAN_MOTION_DDOT": 0}, "tle": {"line1": "1 66864U 25281S   25352.25003472 -.00042369  00000+0 -27389-3 0  9995", "line2": "2 66864  43.0008  88.4485 0001467 274.1986  46.6893 15.75055765  2317"}}, "geometry": {"type": "Point", "coordinates": [-0.24723971531038688, -42.88299226655419]}}, {"type": "Feature", "properties": {"norad_id": 66865, "name": "STARLINK-36117", "group": "last-30-days", "lat": -42.549827394094294, "lon": 4.945279699983253, "alt_km": 346.7415689849331, "timestamp": "2025-12-18T19:29:51.287714+00:00", "meta": {"OBJECT_NAME": "STARLINK-36117", "OBJECT_ID": "2025-281T", "EPOCH": "2025-12-18T06:00:02.999808", "MEAN_MOTION": 15.75046962, "ECCENTRICITY": 0.00017828, "INCLINATION": 43.0008, "RA_OF_ASC_NODE": 88.4393, "ARG_OF_PERICENTER": 259.1742, "MEAN_ANOMALY": 65.5456, "EPHEMERIS_TYPE": 0, "CLASSIFICATION_TYPE": "U", "NORAD_CAT_ID": 66865, "ELEMENT_SET_NO": 999, "REV_AT_EPOCH": 228, "BSTAR": -0.00015139718, "MEAN_MOTION_DOT": -0.00023677, "MEAN_MOTION_DDOT": 0}, "tle": {"line1": "1 66865U 25281T   25352.25003472 -.00023677  00000+0 -15140-3 0  9999", "line2": "2 66865  43.0008  88.4393 0001782 259.1742  65.5456 15.75046962  2289"}}, "geometry": {"type": "Point", "coordinates": [4.945279699983253, -42.549827394094294]}}, {"type": "Feature", "properties": {"norad_id": 66866, "name": "STARLINK-36126", "group": "last-30-days", "lat": -42.29732600437931, "lon": 7.499127089496062, "alt_km": 346.9535039511002, "timestamp": "2025-12-18T19:29:51.287726+00:00", "meta": {"OBJECT_NAME": "STARLINK-36126", "OBJECT_ID": "2025-281U", "EPOCH": "2025-12-18T06:00:02.999808", "MEAN_MOTION": 15.75046075, "ECCENTRICITY": 0.00015478, "INCLINATION": 43.0006, "RA_OF_ASC_NODE": 88.4343, "ARG_OF_PERICENTER": 255.4044, "MEAN_ANOMALY": 71.2379, "EPHEMERIS_TYPE": 0, "CLASSIFICATION_TYPE": "U", "NORAD_CAT_ID": 66866, "ELEMENT_SET_NO": 999, "REV_AT_EPOCH": 231, "BSTAR": -0.00022631691, "MEAN_MOTION_DOT": -0.00035108, "MEAN_MOTION_DDOT": 0}, "tle": {"line1": "1 66866U 25281U   25352.25003472 -.00035108  00000+0 -22632-3 0  9996", "line2": "2 66866  43.0006  88.4343 0001547 255.4044  71.2379 15.75046075  2313"}}, "geometry": {"type": "Point", "coordinates": [7.499127089496062, -42.29732600437931]}}]}